{
"type": "FeatureCollection",
"name": "pedidos_licencas1",
"crs": { "type": "name", "properties": { "name": "urn:ogc:def:crs:OGC:1.3:CRS84" } },
"features": [
{ "type": "Feature", "properties": { "id": 105, "processo": "26.18.000001933-6", "tipo": "Licença Prévia - LP", "empreendimento": "Barra da Tijuca", "finalidade": "Obras de drenagem urbana", "localizacao": "Setor Barra da Tijuca, Goiânia-GO", "status": "Em análise - SEFIC", "validade": null, "pdf_licenca_instalacao": null, "pdf_licenca_previa": null, "pdf_parecer_licenca": null, "pdf_autorizacao_extirpacao": null, "pdf_portaria_outorga": null, "pdf_autorizacao_anac": null }, "geometry": { "type": "Point", "coordinates": [ -49.359135377282158, -16.655375992535884 ] } },
{ "type": "Feature", "properties": { "id": 1, "processo": "25.18.000002557-8", "tipo": "Licença de Instalação - LI", "empreendimento": "Avenida João Leite", "finalidade": "Obras de Drenagem e Pavimentação", "localizacao": "Av. João Leite, Santa Genoveva, Goiânia-GO", "status": "Aprovado", "validade": "16/09/2029", "pdf_licenca_instalacao": "pdfs/licenca_instalacao/Licenca_Instalacao_388_2025.pdf", "pdf_licenca_previa": "pdfs/licenca_previa/Licenca_Previa_061_2020.pdf", "pdf_parecer_licenca": "pdfs/parecer_licenca/Parecer_252_2025.pdf", "pdf_autorizacao_extirpacao": null, "pdf_portaria_outorga": null, "pdf_autorizacao_anac": null }, "geometry": { "type": "Point", "coordinates": [ -49.237009720040859, -16.628221429663945 ] } },
{ "type": "Feature", "properties": { "id": 2, "processo": "25.18.000002505-5", "tipo": "Licença de Instalação - LI", "empreendimento": "Avenidas Diversas - Jardim Goiás", "finalidade": "Obras de Drenagem e Pavimentação", "localizacao": "Av.E, Ruas 53 a 56, Ruas 58 e 59, Ruas 61 e 62 e Rua 66, Jardim Goiás, Goiânia-GO", "status": "Aprovado", "validade": "16/09/2029", "pdf_licenca_instalacao": "pdfs/licenca_instalacao/Licenca_Instalacao_387_2025.pdf", "pdf_licenca_previa": "pdfs/licenca_previa/Licenca_Previa_029_2020.pdf", "pdf_parecer_licenca": "pdfs/parecer_licenca/Parecer_251_2025.pdf", "pdf_autorizacao_extirpacao": null, "pdf_portaria_outorga": null, "pdf_autorizacao_anac": null }, "geometry": { "type": "Point", "coordinates": [ -49.242377277441335, -16.699934913837904 ] } },
{ "type": "Feature", "properties": { "id": 3, "processo": "24.18.000003723-6", "tipo": "Licença de Instalação - LI", "empreendimento": "Vila Pompéia", "finalidade": "Obras de Drenagem e Pavimentação", "localizacao": "Rua Dr. Napoleão Rodrigues Laureano, Rua da Harmonia e Rua Diamantina, Setor Vila Pompéia, Goiânia-GO", "status": "Aprovado", "validade": "09/12/2028", "pdf_licenca_instalacao": "pdfs/licenca_instalacao/Licenca_Instalacao_649_2024.pdf", "pdf_licenca_previa": null, "pdf_parecer_licenca": "pdfs/parecer_licenca/Parecer_1095_2024.pdf", "pdf_autorizacao_extirpacao": null, "pdf_portaria_outorga": null, "pdf_autorizacao_anac": null }, "geometry": { "type": "Point", "coordinates": [ -49.246342818296377, -16.610484736415678 ] } },
{ "type": "Feature", "properties": { "id": 4, "processo": "24.18.000003726-0", "tipo": "Licença de Instalação - LI", "empreendimento": "Parque das Laranjeiras", "finalidade": "Obras de Drenagem e Pavimentação", "localizacao": "Rua do Magno, Avenida dos Flamboyants, Rua Pintalssilgo, Rua Sabiá, Setor Parque das Laranjeiras, Goiânia-GO", "status": "Aprovado", "validade": "09/12/2028", "pdf_licenca_instalacao": "pdfs/licenca_instalacao/Licenca_Instalacao_650_2024.pdf", "pdf_licenca_previa": "pdfs/licenca_previa/Licenca_Previa_002_2023.pdf", "pdf_parecer_licenca": "pdfs/parecer_licenca/Parecer_1098_2024.pdf", "pdf_autorizacao_extirpacao": null, "pdf_portaria_outorga": null, "pdf_autorizacao_anac": null }, "geometry": { "type": "Point", "coordinates": [ -49.222050327018181, -16.725195349424713 ] } },
{ "type": "Feature", "properties": { "id": 5, "processo": "91965265", "tipo": "Licença de Instalação - LI", "empreendimento": "Elizene Santana", "finalidade": "Obras de Drenagem e Pavimentação", "localizacao": "Setor Residencial Elizene Santana", "status": "Aprovado", "validade": "19/12/2028", "pdf_licenca_instalacao": "pdfs/licenca_instalacao/Licenca_Instalacao_679_2024.pdf", "pdf_licenca_previa": null, "pdf_parecer_licenca": "pdfs/parecer_licenca/Parecer_1202_2024.pdf", "pdf_autorizacao_extirpacao": null, "pdf_portaria_outorga": null, "pdf_autorizacao_anac": null }, "geometry": { "type": "Point", "coordinates": [ -49.215455630396242, -16.596161185008679 ] } },
{ "type": "Feature", "properties": { "id": 6, "processo": "43703005 / 92254526", "tipo": "Licença de Instalação - LI", "empreendimento": "Córrego Cascavel", "finalidade": "Canalização de Córrego", "localizacao": "Trecho entre a Avenida Castelo Branco e a Avenida Leste-Oeste, Goiânia-GO", "status": "Aprovado", "validade": "29/11/2028", "pdf_licenca_instalacao": "pdfs/licenca_instalacao/Licenca_Instalacao_622_2024.pdf", "pdf_licenca_previa": null, "pdf_parecer_licenca": "pdfs/parecer_licenca/Parecer_1586_2024.pdf", "pdf_autorizacao_extirpacao": "pdfs/autorizacao_extirpacao/Autorizacao_352_2025.pdf", "pdf_portaria_outorga": "pdfs/portaria_outorga/Portaria_Outorga_0005969_2026.pdf", "pdf_autorizacao_anac": null }, "geometry": { "type": "Point", "coordinates": [ -49.297384511060827, -16.666050273530651 ] } },
{ "type": "Feature", "properties": { "id": 7, "processo": "82982082", "tipo": "Licença de Instalação - LI", "empreendimento": "Recreio Ipê", "finalidade": "Obras de Drenagem e Pavimentação", "localizacao": "Setor Sítio Recreio Ipê, Goiânia-GO", "status": "Aprovado", "validade": "30/09/2028", "pdf_licenca_instalacao": "pdfs/licenca_instalacao/Licenca_Instalacao_492_2024.pdf", "pdf_licenca_previa": "pdfs/licenca_previa/Licenca_Previa_031_2020.pdf", "pdf_parecer_licenca": "pdfs/parecer_licenca/Parecer_817_2024.pdf", "pdf_autorizacao_extirpacao": null, "pdf_portaria_outorga": null, "pdf_autorizacao_anac": null }, "geometry": { "type": "Point", "coordinates": [ -49.273296272988581, -16.651178064183696 ] } },
{ "type": "Feature", "properties": { "id": 8, "processo": "92071008", "tipo": "Licença de Instalação - LI", "empreendimento": "Corredor T-7", "finalidade": "Obras de Implantação de Corredor Preferêncial ou BRS", "localizacao": "Trecho Compreendido entre o Terminal Bandeiras e a Praça Cívica", "status": "Aprovado", "validade": "07/11/2027", "pdf_licenca_instalacao": "pdfs/licenca_instalacao/Licenca_Instalacao_651_2023.pdf", "pdf_licenca_previa": null, "pdf_parecer_licenca": "pdfs/parecer_licenca/Parecer_1693_2023.pdf", "pdf_autorizacao_extirpacao": null, "pdf_portaria_outorga": null, "pdf_autorizacao_anac": null }, "geometry": { "type": "Point", "coordinates": [ -49.271732922281814, -16.687094144215617 ] } },
{ "type": "Feature", "properties": { "id": 9, "processo": "87551750", "tipo": "Licença de Instalação - LI", "empreendimento": "Residencial Juscelino Kubistschek", "finalidade": "Obras de Drenagem e Pavimentação", "localizacao": "Rua diversas, Residencial Juscelino Kubistschek, Goiânia-GO", "status": "Aprovado", "validade": "14/03/2027", "pdf_licenca_instalacao": "pdfs/licenca_instalacao/Licenca_Instalacao_213_2023.pdf", "pdf_licenca_previa": null, "pdf_parecer_licenca": "pdfs/parecer_licenca/Parecer_304_2023.pdf", "pdf_autorizacao_extirpacao": null, "pdf_portaria_outorga": null, "pdf_autorizacao_anac": null }, "geometry": { "type": "Point", "coordinates": [ -49.356169587526409, -16.585076671133635 ] } },
{ "type": "Feature", "properties": { "id": 10, "processo": "46110372", "tipo": "Renovação da Licença de Instalação - LI", "empreendimento": "Praça PEC - Jardim Cerrado I", "finalidade": "Obras de Implantação", "localizacao": "Praça do Esporte e da Cultura (Rua Liberdade com Rua Angra), Residencial Jardins Cerrado I, Goiânia - GO", "status": "Pendente de documentação", "validade": null, "pdf_licenca_instalacao": null, "pdf_licenca_previa": null, "pdf_parecer_licenca": null, "pdf_autorizacao_extirpacao": null, "pdf_portaria_outorga": null, "pdf_autorizacao_anac": null }, "geometry": { "type": "Point", "coordinates": [ -49.417671919440259, -16.665848410497116 ] } },
{ "type": "Feature", "properties": { "id": 11, "processo": "24.18.000003724-4", "tipo": "Licença de Instalação - LI", "empreendimento": "Vila Maria Luiza", "finalidade": "Obras de Drenagem e Pavimentação", "localizacao": "Rua Cruz Alta e Adjacências, Vila Maria Luiza, Goiânia-GO", "status": "Em Análise - SEINFRA", "validade": "28/12/2026", "pdf_licenca_instalacao": null, "pdf_licenca_previa": "pdfs/licenca_previa/Licenca_Previa_131_2022.pdf", "pdf_parecer_licenca": "pdfs/parecer_licenca/Parecer_1030_2022.pdf", "pdf_autorizacao_extirpacao": null, "pdf_portaria_outorga": null, "pdf_autorizacao_anac": null }, "geometry": { "type": "Point", "coordinates": [ -49.22095244815965, -16.689770478976765 ] } },
{ "type": "Feature", "properties": { "id": 12, "processo": "24.18.000003725-2", "tipo": "Licença de Instalação - LI", "empreendimento": "Vila Legionárias", "finalidade": "Obras de Drenagem e Pavimentação", "localizacao": "Avenida Nicolau Copérnico, Vila Legionárias, Goiânia-GO", "status": "Aprovado", "validade": "09/04/2027", "pdf_licenca_instalacao": "pdfs/licenca_instalacao/Licenca_Instalacao_166_2026.pdf", "pdf_licenca_previa": "pdfs/licenca_previa/Licenca_Previa_001_2023.pdf", "pdf_parecer_licenca": "pdfs/parecer_licenca/Parecer_290_2025.pdf", "pdf_autorizacao_extirpacao": null, "pdf_portaria_outorga": null, "pdf_autorizacao_anac": null }, "geometry": { "type": "Point", "coordinates": [ -49.234554588626779, -16.727261096763037 ] } },
{ "type": "Feature", "properties": { "id": 13, "processo": "25.18.000002554-3", "tipo": "Renovação da Licença de Instalação - LI", "empreendimento": "Residencial Della Penna", "finalidade": "Obras de Drenagem e Pavimentação", "localizacao": "Residencial Della Penna, Goiânia-GO", "status": "Em Análise", "validade": null, "pdf_licenca_instalacao": null, "pdf_licenca_previa": null, "pdf_parecer_licenca": null, "pdf_autorizacao_extirpacao": null, "pdf_portaria_outorga": null, "pdf_autorizacao_anac": null }, "geometry": { "type": "Point", "coordinates": [ -49.379218341275781, -16.717091296339845 ] } },
{ "type": "Feature", "properties": { "id": 14, "processo": "83046091", "tipo": "Licença de Instalação - LI", "empreendimento": "Jardim Novo Petrópolis", "finalidade": "Obras de Drenagem e Pavimentação", "localizacao": "Jardim Novo Petrópolis, Goiânia-GO", "status": "Em Análise", "validade": null, "pdf_licenca_instalacao": null, "pdf_licenca_previa": "pdfs/licenca_previa/Licenca_Previa_042_2020.pdf", "pdf_parecer_licenca": null, "pdf_autorizacao_extirpacao": null, "pdf_portaria_outorga": null, "pdf_autorizacao_anac": null }, "geometry": { "type": "Point", "coordinates": [ -49.347801032424464, -16.645291809495411 ] } },
{ "type": "Feature", "properties": { "id": 15, "processo": "25.18.000002523-3", "tipo": "Renovação da Licença de Instalação - LI", "empreendimento": "Jardim Cerrado I e Jardim Cerrado II", "finalidade": "Obras de Drenagem e Pavimentação", "localizacao": "Jardim Cerrado I e Jardim Cerrado II, Goiânia-GO", "status": "Aprovado", "validade": "04/03/2030", "pdf_licenca_instalacao": "pdfs/licenca_instalacao/Licenca_Instalacao_101_2026.pdf", "pdf_licenca_previa": null, "pdf_parecer_licenca": "pdfs/parecer_licenca/Parecer_317_2025.pdf", "pdf_autorizacao_extirpacao": null, "pdf_portaria_outorga": null, "pdf_autorizacao_anac": null }, "geometry": { "type": "Point", "coordinates": [ -49.414912150155132, -16.671918423874207 ] } },
{ "type": "Feature", "properties": { "id": 16, "processo": "25.18.000004269-3", "tipo": "Licença de Instalação - LI", "empreendimento": "Rua da Divisa", "finalidade": "Obras de Drenagem e Pavimentação", "localizacao": "Rua da Divisa,  Setor Jaó, Goiânia-GO", "status": "Em Análise - SEFIC", "validade": "11/11/2029", "pdf_licenca_instalacao": null, "pdf_licenca_previa": "pdfs/licenca_previa/Licenca_Previa_027_2025.pdf", "pdf_parecer_licenca": "pdfs/parecer_licenca/Parecer_285_2025.pdf", "pdf_autorizacao_extirpacao": null, "pdf_portaria_outorga": null, "pdf_autorizacao_anac": null }, "geometry": { "type": "Point", "coordinates": [ -49.222546691502103, -16.639437194005588 ] } },
{ "type": "Feature", "properties": { "id": 17, "processo": "25.18.000002488-1", "tipo": "Renovação da Licença de Instalação - LI", "empreendimento": "Praça PEC - Buena Vista IV", "finalidade": "Obras de Implantação", "localizacao": "Rua Balduíno Tacinto Freitas e Ascendentes, Setor Residencial Buena Vista IV, Goiânia-GO", "status": "Pendente de documentação", "validade": null, "pdf_licenca_instalacao": null, "pdf_licenca_previa": null, "pdf_parecer_licenca": null, "pdf_autorizacao_extirpacao": null, "pdf_portaria_outorga": null, "pdf_autorizacao_anac": null }, "geometry": { "type": "Point", "coordinates": [ -49.392906445531736, -16.716513474100243 ] } },
{ "type": "Feature", "properties": { "id": 18, "processo": "25.18.000003903-0", "tipo": "Licença Prévia - LP", "empreendimento": "Avenida Leste-Oeste: Tramo Oeste", "finalidade": "Duplicação de Via", "localizacao": "Av. Leste-Oeste: Tramo Oeste, Goiânia-GO", "status": "Em análise - SEFIC", "validade": null, "pdf_licenca_instalacao": null, "pdf_licenca_previa": null, "pdf_parecer_licenca": null, "pdf_autorizacao_extirpacao": "pdfs/autorizacao_extirpacao/Autorizacao_127_2026.pdf", "pdf_portaria_outorga": null, "pdf_autorizacao_anac": null }, "geometry": { "type": "Point", "coordinates": [ -49.363696771861889, -16.68369467306734 ] } },
{ "type": "Feature", "properties": { "id": 19, "processo": "25.18.000002691-4", "tipo": "Renovação da Licença de Instalação - LI", "empreendimento": "Avenida Militar", "finalidade": "Obras de drenagem e pavimentação", "localizacao": "Av. Militar, Residencial Guanabara, Goiânia-GO", "status": "Pendente de documentação", "validade": null, "pdf_licenca_instalacao": null, "pdf_licenca_previa": null, "pdf_parecer_licenca": null, "pdf_autorizacao_extirpacao": null, "pdf_portaria_outorga": null, "pdf_autorizacao_anac": null }, "geometry": { "type": "Point", "coordinates": [ -49.226960933807263, -16.605923189362162 ] } },
{ "type": "Feature", "properties": { "id": 20, "processo": "24.18.000000210-6", "tipo": "Renovação da Licença de Instalação - LI", "empreendimento": "Avenida Marginal Capim Puba", "finalidade": "Obras de drenagem e pavimentação", "localizacao": "Av. Marginal Capim Puba, Setor dos Funcionários, Goiânia-GO", "status": "A iniciar", "validade": null, "pdf_licenca_instalacao": null, "pdf_licenca_previa": null, "pdf_parecer_licenca": null, "pdf_autorizacao_extirpacao": null, "pdf_portaria_outorga": null, "pdf_autorizacao_anac": null }, "geometry": { "type": "Point", "coordinates": [ -49.270142665506953, -16.665195946005419 ] } },
{ "type": "Feature", "properties": { "id": 21, "processo": "91967254", "tipo": "Licença de Instalação - LI", "empreendimento": "Sítio Recreio Mansões do Campus", "finalidade": "Obras de ampliação da rede de drenagem", "localizacao": "Sítio Recreio Mansões do Campus, Região Norte, Goiânia-GO", "status": "A iniciar", "validade": "20/01/2027", "pdf_licenca_instalacao": null, "pdf_licenca_previa": "pdfs/licenca_previa/Licenca_Previa_022_2023.pdf", "pdf_parecer_licenca": "pdfs/parecer_licenca/Parecer_076_2023.pdf", "pdf_autorizacao_extirpacao": null, "pdf_portaria_outorga": null, "pdf_autorizacao_anac": null }, "geometry": { "type": "Point", "coordinates": [ -49.292991488081519, -16.574644704090247 ] } },
{ "type": "Feature", "properties": { "id": 22, "processo": "91975598", "tipo": "Licença de Instalação - LI", "empreendimento": "Ponte de Ligação da Avenida Hermes Pontes com a Avenida Inglaterra", "finalidade": "Construção de Ponte de Ligação", "localizacao": "Trecho entre Av. Inglaterra com Av. Hermes Pontes, Jardim Europa, Goiânia-GO", "status": "A iniciar", "validade": "02/02/2027", "pdf_licenca_instalacao": null, "pdf_licenca_previa": "pdfs/licenca_previa/Licenca_Previa_039_2023.pdf", "pdf_parecer_licenca": "pdfs/parecer_licenca/Parecer_150_2023.pdf", "pdf_autorizacao_extirpacao": null, "pdf_portaria_outorga": null, "pdf_autorizacao_anac": null }, "geometry": { "type": "Point", "coordinates": [ -49.313400145138388, -16.718170803175099 ] } },
{ "type": "Feature", "properties": { "id": 23, "processo": "91976414", "tipo": "Licença de Instalação - LI", "empreendimento": "Ponte de Ligação entre Avenida EF-9 e Avenida Baffin", "finalidade": "Construção de Ponte de Ligação", "localizacao": "Trecho entre Av. EF-9 e Av. Baffin, Jardim Eli Forte, Goiânia-GO", "status": "A iniciar", "validade": "30/01/2027", "pdf_licenca_instalacao": null, "pdf_licenca_previa": "pdfs/licenca_previa/Licenca_Previa_035_2023.pdf", "pdf_parecer_licenca": "pdfs/parecer_licenca/Parecer_134_2023.pdf", "pdf_autorizacao_extirpacao": null, "pdf_portaria_outorga": null, "pdf_autorizacao_anac": null }, "geometry": { "type": "Point", "coordinates": [ -49.355624206557259, -16.727804316931675 ] } },
{ "type": "Feature", "properties": { "id": 24, "processo": "91967238", "tipo": "Licença de Instalação - LI", "empreendimento": "Sítio Recreio dos Bandeirantes", "finalidade": "Obras de drenagem e pavimentação", "localizacao": "Vias Diversas, Sítio Recreio dos Bandeirantes, Goiânia-GO", "status": "A iniciar", "validade": "20/01/2027", "pdf_licenca_instalacao": null, "pdf_licenca_previa": "pdfs/licenca_previa/Licenca_Previa_018_2023.pdf", "pdf_parecer_licenca": "pdfs/parecer_licenca/Parecer_075_2023.pdf", "pdf_autorizacao_extirpacao": null, "pdf_portaria_outorga": null, "pdf_autorizacao_anac": null }, "geometry": { "type": "Point", "coordinates": [ -49.376438656106089, -16.613208517232216 ] } },
{ "type": "Feature", "properties": { "id": 25, "processo": "91967270", "tipo": "Licença de Instalação - LI", "empreendimento": "Residencial Parque Maracanã", "finalidade": "Obras de drenagem e Pavimentação", "localizacao": "Vias Diversas, Residencial Parque Maracanã, Goiânia-GO", "status": "A iniciar", "validade": "20/01/2027", "pdf_licenca_instalacao": null, "pdf_licenca_previa": "pdfs/licenca_previa/Licenca_Previa_014_2023.pdf", "pdf_parecer_licenca": "pdfs/parecer_licenca/Parecer_077_2023.pdf", "pdf_autorizacao_extirpacao": null, "pdf_portaria_outorga": null, "pdf_autorizacao_anac": null }, "geometry": { "type": "Point", "coordinates": [ -49.384040502120136, -16.573906161754554 ] } },
{ "type": "Feature", "properties": { "id": 26, "processo": "91968614", "tipo": "Licença de Instalação - LI", "empreendimento": "Ponte de Ligação entre Setor Empresarial e Residencial Recreio Panorama", "finalidade": "Construção de ponte de ligação", "localizacao": "Trecho entre Setor Empresarial e Residencial Recreio Panorama, Goiânia-GO", "status": "A iniciar", "validade": "20/01/2027", "pdf_licenca_instalacao": null, "pdf_licenca_previa": "pdfs/licenca_previa/Licenca_Previa_021_2023.pdf", "pdf_parecer_licenca": "pdfs/parecer_licenca/Parecer_072_2023.pdf", "pdf_autorizacao_extirpacao": null, "pdf_portaria_outorga": null, "pdf_autorizacao_anac": null }, "geometry": { "type": "Point", "coordinates": [ -49.313540819868905, -16.63341968861009 ] } },
{ "type": "Feature", "properties": { "id": 27, "processo": "91976463", "tipo": "Licença de Instalação - LI", "empreendimento": "Ponte de Ligação entre Jardim Gardênia e Residencial Forte Ville", "finalidade": "Construção de ponte de ligação", "localizacao": "Trecho entre Jardim Gardênia e Residencial Forte Ville, Goiânia-GO", "status": "A iniciar", "validade": "02/02/2027", "pdf_licenca_instalacao": null, "pdf_licenca_previa": "pdfs/licenca_previa/Licenca_Previa_040_2023.pdf", "pdf_parecer_licenca": "pdfs/parecer_licenca/Parecer_154_2023.pdf", "pdf_autorizacao_extirpacao": null, "pdf_portaria_outorga": null, "pdf_autorizacao_anac": null }, "geometry": { "type": "Point", "coordinates": [ -49.37498321370196, -16.741311796343851 ] } },
{ "type": "Feature", "properties": { "id": 28, "processo": "91976428", "tipo": "Licença de Instalação - LI", "empreendimento": "Ponte de Ligação entre Setor Criméia Leste e Criméia Oeste", "finalidade": "Construção de ponte de ligação", "localizacao": "Trecho entre Setor Criméia Leste e Criméia Oeste, Goiânia-GO", "status": "A iniciar", "validade": "30/01/2027", "pdf_licenca_instalacao": null, "pdf_licenca_previa": "pdfs/licenca_previa/Licenca_Previa_036_2023.pdf", "pdf_parecer_licenca": "pdfs/parecer_licenca/Parecer_132_2023.pdf", "pdf_autorizacao_extirpacao": null, "pdf_portaria_outorga": null, "pdf_autorizacao_anac": null }, "geometry": { "type": "Point", "coordinates": [ -49.264155873610129, -16.644151547377788 ] } },
{ "type": "Feature", "properties": { "id": 29, "processo": "91976454", "tipo": "Licença de Instalação - LI", "empreendimento": "Ponte de Ligação entre a Avenida D e o Residencial Vale do Araguaia", "finalidade": "Construção de ponte de ligação", "localizacao": "Trecho entre a Avenida D e o Residencial Vale do Araguaia, Goiânia-GO", "status": "A iniciar", "validade": "31/01/2027", "pdf_licenca_instalacao": null, "pdf_licenca_previa": "pdfs/licenca_previa/Licenca_Previa_037_2023.pdf", "pdf_parecer_licenca": "pdfs/parecer_licenca/Parecer_138_2023.pdf", "pdf_autorizacao_extirpacao": null, "pdf_portaria_outorga": null, "pdf_autorizacao_anac": null }, "geometry": { "type": "Point", "coordinates": [ -49.206500876367571, -16.677139771682207 ] } },
{ "type": "Feature", "properties": { "id": 30, "processo": "91975590", "tipo": "Licença de Instalação - LI", "empreendimento": "Ponte de Ligação entre o Jardim Cerrado II e o Parque Eldorado Oeste", "finalidade": "Construção de ponte de ligação", "localizacao": "Trecho entre o Jardim Cerrado II e o Parque Eldorado Oeste, Goiânia-GO", "status": "A iniciar", "validade": "03/02/2027", "pdf_licenca_instalacao": null, "pdf_licenca_previa": "pdfs/licenca_previa/Licenca_Previa_042_2023.pdf", "pdf_parecer_licenca": "pdfs/parecer_licenca/Parecer_161_2023.pdf", "pdf_autorizacao_extirpacao": null, "pdf_portaria_outorga": null, "pdf_autorizacao_anac": null }, "geometry": { "type": "Point", "coordinates": [ -49.410755174500423, -16.677258804146479 ] } },
{ "type": "Feature", "properties": { "id": 31, "processo": "91975558", "tipo": "Licença de Instalação - LI", "empreendimento": "Ponte de Ligação entre o Residencial Itaipú e o Condomínio das Esmeraldas", "finalidade": "Construção de ponte de ligação", "localizacao": "Trecho entre o Residencial Itaipú e o Condomínio das Esmeraldas", "status": "A iniciar", "validade": "03/02/2027", "pdf_licenca_instalacao": null, "pdf_licenca_previa": "pdfs/licenca_previa/Licenca_Previa_041_2023.pdf", "pdf_parecer_licenca": "pdfs/parecer_licenca/Parecer_160_2023.pdf", "pdf_autorizacao_extirpacao": null, "pdf_portaria_outorga": null, "pdf_autorizacao_anac": null }, "geometry": { "type": "Point", "coordinates": [ -49.367719528097737, -16.79334792021595 ] } },
{ "type": "Feature", "properties": { "id": 32, "processo": "91975583", "tipo": "Licença de Instalação - LI", "empreendimento": "Ponte de Ligação entre a Avenida Brasil (Jardim Presidente) e Residencial Três Marias", "finalidade": "Construção de ponte de ligação", "localizacao": "Trecho entre a Avenida Brasil (Jardim Presidente) e Residencial Três Marias", "status": "A iniciar", "validade": "03/02/2027", "pdf_licenca_instalacao": null, "pdf_licenca_previa": "pdfs/licenca_previa/Licenca_Previa_043_2023.pdf", "pdf_parecer_licenca": "pdfs/parecer_licenca/Parecer_159_2023.pdf", "pdf_autorizacao_extirpacao": null, "pdf_portaria_outorga": null, "pdf_autorizacao_anac": null }, "geometry": { "type": "Point", "coordinates": [ -49.329688655761203, -16.730298588115019 ] } },
{ "type": "Feature", "properties": { "id": 33, "processo": "91998722", "tipo": "Licença de Instalação - LI", "empreendimento": "Viaduto de Ligação da BR-060 entre Alameda Câmara Filho e Rua das Magnólias", "finalidade": "Construção de Viaduto de ligação", "localizacao": "Trecho da BR-060 entre Alameda Câmara Filho e Rua das Magnólias", "status": "A iniciar", "validade": "15/03/2027", "pdf_licenca_instalacao": null, "pdf_licenca_previa": "pdfs/licenca_previa/Licenca_Previa_051_2023.pdf", "pdf_parecer_licenca": null, "pdf_autorizacao_extirpacao": null, "pdf_portaria_outorga": null, "pdf_autorizacao_anac": null }, "geometry": { "type": "Point", "coordinates": [ -49.326350336194892, -16.696028059536349 ] } },
{ "type": "Feature", "properties": { "id": 34, "processo": "92210590", "tipo": "Licença de Instalação - LI", "empreendimento": "Vias Diversas - Setor Vila Canaã", "finalidade": "Obras de drenagem e pavimentação", "localizacao": "Vias Diversas, Setor Vila Canaã, Goiânia-GO", "status": "A iniciar", "validade": "18/06/2028", "pdf_licenca_instalacao": null, "pdf_licenca_previa": "pdfs/licenca_previa/Licenca_Previa_015_2024.pdf", "pdf_parecer_licenca": "pdfs/parecer_licenca/Parecer_470_2024.pdf", "pdf_autorizacao_extirpacao": null, "pdf_portaria_outorga": null, "pdf_autorizacao_anac": null }, "geometry": { "type": "Point", "coordinates": [ -49.313337923622811, -16.687790471951729 ] } },
{ "type": "Feature", "properties": { "id": 35, "processo": "91967288", "tipo": "Licença de Instalação - LI", "empreendimento": "Residencial Elza Fronza", "finalidade": "Obras de drenagem e pavimentação", "localizacao": "Vias diversas, Res. Elza Fronza, Goiânia-GO", "status": "A iniciar", "validade": "20/01/2027", "pdf_licenca_instalacao": null, "pdf_licenca_previa": "pdfs/licenca_previa/Licenca_Previa_017_2023.pdf", "pdf_parecer_licenca": "pdfs/parecer_licenca/Parecer_079_2023.pdf", "pdf_autorizacao_extirpacao": null, "pdf_portaria_outorga": null, "pdf_autorizacao_anac": null }, "geometry": { "type": "Point", "coordinates": [ -49.282731351481452, -16.576608899670855 ] } },
{ "type": "Feature", "properties": { "id": 36, "processo": "25.18.000005175-7", "tipo": "Licença de Instalação - LI", "empreendimento": "Marginal Botafogo", "finalidade": "Obras de Drenagem e Pavimentação", "localizacao": "Av. Marginal Botafogo (Extensão Total)", "status": "Em análise - SEFIC", "validade": "17/06/2029", "pdf_licenca_instalacao": null, "pdf_licenca_previa": "pdfs/licenca_previa/Licenca_Previa_014_2025.pdf", "pdf_parecer_licenca": "pdfs/parecer_licenca/Parecer_162_2025.pdf", "pdf_autorizacao_extirpacao": null, "pdf_portaria_outorga": null, "pdf_autorizacao_anac": null }, "geometry": { "type": "Point", "coordinates": [ -49.243262970912347, -16.691745263894909 ] } },
{ "type": "Feature", "properties": { "id": 37, "processo": "26.9.000000444-2", "tipo": "Licença de Instalação - LI", "empreendimento": "Centro Municipal de Educação Infantil - CMEI Grande Retiro", "finalidade": "Implantação e Reforma", "localizacao": "Rua GR-05, Quadra 21, Setor Grande Retiro, Goiânia-GO.", "status": "Aprovado", "validade": "27/07/2030", "pdf_licenca_instalacao": "pdfs/licenca_instalacao/Licenca_Instalacao_320_2026.pdf", "pdf_licenca_previa": null, "pdf_parecer_licenca": "pdfs/parecer_licenca/Parecer_137_2026.pdf", "pdf_autorizacao_extirpacao": null, "pdf_portaria_outorga": null, "pdf_autorizacao_anac": null }, "geometry": { "type": "Point", "coordinates": [ -49.181489406609053, -16.666694990844846 ] } },
{ "type": "Feature", "properties": { "id": 38, "processo": "26.9.000000373-0", "tipo": "Licença de Instalação - LI", "empreendimento": "Centro Municipal de Educação Infantil - CMEI Jardim Real", "finalidade": "Implantação e Reforma", "localizacao": "Rua JR-11 com Rua JR-10 com Rua do Bosque, APM-09, Jardim Real, Goiânia-GO", "status": "Aprovado", "validade": "01/07/2027", "pdf_licenca_instalacao": "pdfs/licenca_instalacao/Licenca_Instalacao_283_2026.pdf", "pdf_licenca_previa": null, "pdf_parecer_licenca": "pdfs/parecer_licenca/Parecer_111_2026.pdf", "pdf_autorizacao_extirpacao": null, "pdf_portaria_outorga": null, "pdf_autorizacao_anac": null }, "geometry": { "type": "Point", "coordinates": [ -49.376907388779742, -16.651683853078232 ] } },
{ "type": "Feature", "properties": { "id": 39, "processo": "26.18.000000832-6", "tipo": "Licença Prévia - LP", "empreendimento": "Escola Municipal - EM Nicanor de Assis", "finalidade": "Implantação e Reforma de Quadra Poliesportiva", "localizacao": "Rua Alpha 14, esquina com Rua Alpha 05, Quadra 06, Residencial Alphaville, Goiânia-GO", "status": "Pendente de documentação", "validade": null, "pdf_licenca_instalacao": null, "pdf_licenca_previa": null, "pdf_parecer_licenca": null, "pdf_autorizacao_extirpacao": null, "pdf_portaria_outorga": null, "pdf_autorizacao_anac": null }, "geometry": { "type": "Point", "coordinates": [ -49.37523948458346, -16.727180482101168 ] } },
{ "type": "Feature", "properties": { "id": 40, "processo": "25.24.000024144-8", "tipo": "Licença de Instalação - LI", "empreendimento": "Centro Municipal de Educação Infantil - CMEI Vivendo e Aprendendo", "finalidade": "Implantação de Calçada Acessível e Pórtico de Entrada", "localizacao": "Rua Januário da Cunha Barbosa\ncom Rua Ferrão Dias Jaime no Bairro Capuava, Capuava, Goiânia-GO", "status": "Aprovado", "validade": "Não se Aplica (Dispensa de Licença)", "pdf_licenca_instalacao": "pdfs/licenca_instalacao/Dispensa_Informe_03_2024.pdf", "pdf_licenca_previa": null, "pdf_parecer_licenca": null, "pdf_autorizacao_extirpacao": null, "pdf_portaria_outorga": null, "pdf_autorizacao_anac": null }, "geometry": { "type": "Point", "coordinates": [ -49.327680250848402, -16.65550134069991 ] } },
{ "type": "Feature", "properties": { "id": 41, "processo": "26.18.000000824-5", "tipo": "Licença Prévia - LP", "empreendimento": "Centro Municipal de Educação Infantil - CMEI Brincando e Aprendendo", "finalidade": "Construção de Muro com Pórtico e Calçada Acessível", "localizacao": "Esquina com Rua Ubá, Setor Jardim Guanabara I, Goiânia-GO", "status": "Pendente de documentação", "validade": null, "pdf_licenca_instalacao": null, "pdf_licenca_previa": null, "pdf_parecer_licenca": null, "pdf_autorizacao_extirpacao": null, "pdf_portaria_outorga": null, "pdf_autorizacao_anac": null }, "geometry": { "type": "Point", "coordinates": [ -49.22138011530371, -16.626073375857299 ] } },
{ "type": "Feature", "properties": { "id": 42, "processo": "26.18.000000839-3", "tipo": "Licença Prévia - LP", "empreendimento": "Escola Municipal - EM Dona Angelina Pucci Limongi", "finalidade": "Obras de Reforma Geral e Acessibilidade", "localizacao": "Rua 7, Quadras 50 e 51, Setor Santos Dumont, Goiânia-GO", "status": "Pendente de documentação", "validade": null, "pdf_licenca_instalacao": null, "pdf_licenca_previa": null, "pdf_parecer_licenca": null, "pdf_autorizacao_extirpacao": null, "pdf_portaria_outorga": null, "pdf_autorizacao_anac": null }, "geometry": { "type": "Point", "coordinates": [ -49.340335602015763, -16.650149551139865 ] } },
{ "type": "Feature", "properties": { "id": 43, "processo": "26.18.000001380-0", "tipo": "Renovação da Licença de Instalação - LI", "empreendimento": "Jardim Petrópolis", "finalidade": "Obras de Drenagem e Pavimentação", "localizacao": "Ruas Diversas, Jardim Petrópolis, Goiânia-GO", "status": "Em análise - SEFIC", "validade": "29/09/2020", "pdf_licenca_instalacao": "pdfs/licenca_instalacao/Licenca_Instalacao_133_2020.pdf", "pdf_licenca_previa": "pdfs/licenca_previa/Licenca_Previa_030_2020.pdf", "pdf_parecer_licenca": null, "pdf_autorizacao_extirpacao": null, "pdf_portaria_outorga": null, "pdf_autorizacao_anac": null }, "geometry": { "type": "Point", "coordinates": [ -49.356076941394051, -16.663951291789395 ] } },
{ "type": "Feature", "properties": { "id": 44, "processo": "26.18.000001020-7", "tipo": "Licença Prévia - LP", "empreendimento": "Centro Municipal de Educação Infantil - CMEI Maria Odete Augusta de Brito", "finalidade": "Obras de Reforma e Ampliação", "localizacao": "Rua GB-41, nº333, Qd. 72, Jardim Guanabara III, CEP 74360-230, Goiânia - GO", "status": "Pendente de documentação", "validade": null, "pdf_licenca_instalacao": null, "pdf_licenca_previa": null, "pdf_parecer_licenca": null, "pdf_autorizacao_extirpacao": null, "pdf_portaria_outorga": null, "pdf_autorizacao_anac": null }, "geometry": { "type": "Point", "coordinates": [ -49.221161104109619, -16.613983842631498 ] } },
{ "type": "Feature", "properties": { "id": 45, "processo": "26.18.000001022-3", "tipo": "Licença Prévia - LP", "empreendimento": "Escola Municipal - EM Professora Maria Camargo", "finalidade": "Obras de Reforma", "localizacao": "Rua C 152, 1201 Qd. 405, Área 02 - Jardim América - Goiânia – 74275120", "status": "Pendente de documentação", "validade": null, "pdf_licenca_instalacao": null, "pdf_licenca_previa": null, "pdf_parecer_licenca": null, "pdf_autorizacao_extirpacao": null, "pdf_portaria_outorga": null, "pdf_autorizacao_anac": null }, "geometry": { "type": "Point", "coordinates": [ -49.280119040152996, -16.719198536014908 ] } },
{ "type": "Feature", "properties": { "id": 46, "processo": "23.24.000003556-1", "tipo": "Licença Prévia - LP", "empreendimento": "Escola Municipal - EM Buena Vista IV", "finalidade": "Implantação de Quadra e Salas de Aula", "localizacao": "Ruas Pouso Alegre, Porto Franco e Canópolis, APM-29 - Residencial Buena Vista, Goiânia-Goiás", "status": "Pendente de documentação", "validade": null, "pdf_licenca_instalacao": null, "pdf_licenca_previa": null, "pdf_parecer_licenca": null, "pdf_autorizacao_extirpacao": null, "pdf_portaria_outorga": null, "pdf_autorizacao_anac": null }, "geometry": { "type": "Point", "coordinates": [ -49.396953093241834, -16.718147900269472 ] } },
{ "type": "Feature", "properties": { "id": 47, "processo": "26.9.000000445-0", "tipo": "Licença de Instalação - LI", "empreendimento": "Centro Municipal de Educação Infantil - CMEI Solar Ville", "finalidade": "Obras para Implantação de CMEI", "localizacao": "APM-09, divisa com a Rua Dr. Cristiano Teixeira da Silva, Setor Solar Ville, Goiânia-GO", "status": "Aprovado", "validade": "27/07/2030", "pdf_licenca_instalacao": "pdfs/licenca_instalacao/Licenca_Instalacao_319_2026.pdf", "pdf_licenca_previa": null, "pdf_parecer_licenca": "pdfs/parecer_licenca/Parecer_136_2026.pdf", "pdf_autorizacao_extirpacao": null, "pdf_portaria_outorga": null, "pdf_autorizacao_anac": null }, "geometry": { "type": "Point", "coordinates": [ -49.358467003805131, -16.631651366727926 ] } },
{ "type": "Feature", "properties": { "id": 48, "processo": "26.18.000001550-0", "tipo": "Licença Prévia - LP", "empreendimento": "Reservatório do Parque Areião", "finalidade": "Obras de Drenagem com Implantação de Reservatório de Amortecimento de Cheias", "localizacao": "Parque Areião, Setor Pedro Ludovico, Goiânia-GO", "status": "Em Análise - SEFIC", "validade": null, "pdf_licenca_instalacao": null, "pdf_licenca_previa": null, "pdf_parecer_licenca": null, "pdf_autorizacao_extirpacao": null, "pdf_portaria_outorga": null, "pdf_autorizacao_anac": null }, "geometry": { "type": "Point", "coordinates": [ -49.253938744166867, -16.704858220137798 ] } },
{ "type": "Feature", "properties": { "id": 49, "processo": "26.18.000001837-2", "tipo": "Licença de Instalação - LI", "empreendimento": "Obras Emergenciais - Córrego Botafogo", "finalidade": "Obras de macro e micro drenagem na bacia do Córrego Botafogo contemplando reservatório de amortecimento", "localizacao": "Jardim Botânico e complexo viário da Jamel Cecílio, Av. Marginal Botafogo, Goiânia-GO", "status": "Em análise - SEFIC", "validade": null, "pdf_licenca_instalacao": null, "pdf_licenca_previa": null, "pdf_parecer_licenca": null, "pdf_autorizacao_extirpacao": null, "pdf_portaria_outorga": null, "pdf_autorizacao_anac": null }, "geometry": { "type": "Point", "coordinates": [ -49.245044162125062, -16.714212124329102 ] } },
{ "type": "Feature", "properties": { "id": 50, "processo": "26.18.000001875-5", "tipo": "Licença Prévia - LP", "empreendimento": "GoianiaPrev", "finalidade": "Obras de Reforma e Adequação", "localizacao": "Av. B, Qd. C, LT. 16/18, n° 155, Setor Oeste, Goiânia-GO", "status": "Aprovado", "validade": "16/07/2030", "pdf_licenca_instalacao": null, "pdf_licenca_previa": "pdfs/licenca_previa/Licenca_Previa_027_2026.pdf", "pdf_parecer_licenca": "pdfs/parecer_licenca/Parecer_126_2026.pdf", "pdf_autorizacao_extirpacao": null, "pdf_portaria_outorga": null, "pdf_autorizacao_anac": null }, "geometry": { "type": "Point", "coordinates": [ -49.265820116332044, -16.678627815404937 ] } },
{ "type": "Feature", "properties": { "id": 51, "processo": "26.18.000001921-2", "tipo": "Licença Prévia - LP", "empreendimento": "Jardins Madri", "finalidade": "Obras de Ampliação de Drenagem", "localizacao": "Ruas CV12, CV37 e CV23, Jardins Madri, Goiânia", "status": "Em análise", "validade": null, "pdf_licenca_instalacao": null, "pdf_licenca_previa": null, "pdf_parecer_licenca": null, "pdf_autorizacao_extirpacao": null, "pdf_portaria_outorga": null, "pdf_autorizacao_anac": null }, "geometry": { "type": "Point", "coordinates": [ -49.345522078489658, -16.745062065888689 ] } },
{ "type": "Feature", "properties": { "id": 52, "processo": "26.18.000001496-2", "tipo": "Licença Prévia - LP", "empreendimento": "Avenida T-63", "finalidade": "Obras de Restauração Asfáltica", "localizacao": "Av. T-63, no trecho compreendido entre a Rua C-162 e a Praça Wilson Sales, Jardim América, Goiânia-GO", "status": "Em análise - SEFIC", "validade": null, "pdf_licenca_instalacao": null, "pdf_licenca_previa": null, "pdf_parecer_licenca": null, "pdf_autorizacao_extirpacao": null, "pdf_portaria_outorga": null, "pdf_autorizacao_anac": null }, "geometry": { "type": "Point", "coordinates": [ -49.281303100456356, -16.715474064088813 ] } },
{ "type": "Feature", "properties": { "id": 53, "processo": "26.18.000001882-8", "tipo": "Licença Prévia - LP", "empreendimento": "Jardim das Orquídeas", "finalidade": "Obras de Drenagem e Pavimentação", "localizacao": "Ruas diversas, Jardim das Orquídeas, Goiânia-GO", "status": "A iniciar", "validade": null, "pdf_licenca_instalacao": null, "pdf_licenca_previa": null, "pdf_parecer_licenca": null, "pdf_autorizacao_extirpacao": null, "pdf_portaria_outorga": null, "pdf_autorizacao_anac": null }, "geometry": { "type": "Point", "coordinates": [ -49.37019686349025, -16.704665897680972 ] } },
{ "type": "Feature", "properties": { "id": 54, "processo": "26.18.000001831-3", "tipo": "Renovação da Licença de Instalação - LI", "empreendimento": "Casa da Mulher Brasileira", "finalidade": "Obras de Construção", "localizacao": "Alameda Vitória Régia, Loteamento Goiânia 2, Goiânia-GO", "status": "Em análise - SEFIC", "validade": "20/10/2026", "pdf_licenca_instalacao": "pdfs/licenca_instalacao/Licenca_Instalacao_610_2022.pdf", "pdf_licenca_previa": null, "pdf_parecer_licenca": null, "pdf_autorizacao_extirpacao": null, "pdf_portaria_outorga": null, "pdf_autorizacao_anac": null }, "geometry": { "type": "Point", "coordinates": [ -49.251188521797481, -16.632255899910486 ] } },
{ "type": "Feature", "properties": { "id": 55, "processo": "91963349", "tipo": "Licença de Instalação - LI", "empreendimento": "Av. Marginal Leste", "finalidade": "Obras de Drenagem Urbana (Galeria e Bueiro)", "localizacao": "Av. Marginal Leste, sob Córrego Buriti, Região Leste de Goiânia-GO", "status": "Pendente de documentação ", "validade": null, "pdf_licenca_instalacao": null, "pdf_licenca_previa": null, "pdf_parecer_licenca": null, "pdf_autorizacao_extirpacao": null, "pdf_portaria_outorga": null, "pdf_autorizacao_anac": null }, "geometry": { "type": "Point", "coordinates": [ -49.189177400923896, -16.709664237980078 ] } },
{ "type": "Feature", "properties": { "id": 56, "processo": "26.18.000001880-1", "tipo": "Licença Prévia - LP", "empreendimento": "Mundo Novo III", "finalidade": "Obras de Drenagem e Pavimentação", "localizacao": "Ruas diversas, setor Mundo Novo III, Goiânia-GO", "status": "A iniciar", "validade": null, "pdf_licenca_instalacao": null, "pdf_licenca_previa": null, "pdf_parecer_licenca": null, "pdf_autorizacao_extirpacao": null, "pdf_portaria_outorga": null, "pdf_autorizacao_anac": null }, "geometry": { "type": "Point", "coordinates": [ -49.421624012877778, -16.66376370660625 ] } },
{ "type": "Feature", "properties": { "id": 57, "processo": "83046066", "tipo": "Licença de Instalação - LI", "empreendimento": "Chácaras São Joaquim", "finalidade": "Obras de Drenagem e Pavimentação", "localizacao": "Rua diversas, setor Chácaras São Joaquim, Goiânia-GO", "status": "Aprovado", "validade": "13/03/2028", "pdf_licenca_instalacao": "pdfs/licenca_instalacao/Licenca_Instalacao_156_2024.pdf", "pdf_licenca_previa": "pdfs/licenca_previa/Licenca_Previa_045_2020.pdf", "pdf_parecer_licenca": "pdfs/parecer_licenca/Parecer_208_2024.pdf", "pdf_autorizacao_extirpacao": "pdfs/autorizacao_extirpacao/Autorizacao_036_2024.pdf", "pdf_portaria_outorga": null, "pdf_autorizacao_anac": null }, "geometry": { "type": "Point", "coordinates": [ -49.351713959015648, -16.638039472136747 ] } },
{ "type": "Feature", "properties": { "id": 58, "processo": "91951013", "tipo": "Licença Prévia - LP", "empreendimento": "Av. C - Recreio Panorama", "finalidade": "Ampliação de Rede de Drenagem Urbana", "localizacao": "Av. C, Recreio Panorama sobre o Córrego Caveirinha, Goiânia-GO", "status": "Aprovado", "validade": "06/01/2027", "pdf_licenca_instalacao": null, "pdf_licenca_previa": "pdfs/licenca_previa/Licenca_Previa_004_2023.pdf", "pdf_parecer_licenca": "pdfs/parecer_licenca/Parecer_007_2022.pdf", "pdf_autorizacao_extirpacao": null, "pdf_portaria_outorga": null, "pdf_autorizacao_anac": null }, "geometry": { "type": "Point", "coordinates": [ -49.306650311287484, -16.633162330766705 ] } },
{ "type": "Feature", "properties": { "id": 59, "processo": "91956655", "tipo": "Licença Prévia - LP", "empreendimento": "Antiga Assembléia Legislativa", "finalidade": "Ampliação de Rede de Drenagem Urbana", "localizacao": "Em torno da Assembléia Legislativa, Alameda dos Buritis, Setores Central e Aeroporto, Goiânia-GO", "status": "Aprovado", "validade": "06/01/2027", "pdf_licenca_instalacao": null, "pdf_licenca_previa": "pdfs/licenca_previa/Licenca_Previa_003_2023.pdf", "pdf_parecer_licenca": "pdfs/parecer_licenca/Parecer_818_2023.pdf", "pdf_autorizacao_extirpacao": null, "pdf_portaria_outorga": null, "pdf_autorizacao_anac": null }, "geometry": { "type": "Point", "coordinates": [ -49.260983702668483, -16.679380090689094 ] } },
{ "type": "Feature", "properties": { "id": 60, "processo": "91951052", "tipo": "Licença Prévia - LI", "empreendimento": "Bairro Goiá", "finalidade": "Obras de drenagem e pavimentação", "localizacao": "Rua Padre Monte, Setor Bairro Goiá, Goiânia-GO", "status": "Aprovado", "validade": "28/12/2026", "pdf_licenca_instalacao": null, "pdf_licenca_previa": "pdfs/licenca_previa/Licenca_Previa_132_2022.pdf", "pdf_parecer_licenca": "pdfs/parecer_licenca/Parecer_1502_2022.pdf", "pdf_autorizacao_extirpacao": null, "pdf_portaria_outorga": null, "pdf_autorizacao_anac": null }, "geometry": { "type": "Point", "coordinates": [ -49.333567524670713, -16.687686541750942 ] } },
{ "type": "Feature", "properties": { "id": 61, "processo": "91942161", "tipo": "Licença Prévia - LP", "empreendimento": "Viaduto (Av. Leste-Oeste com Av. Castelo Branco", "finalidade": "Obras de drenagem, pavimentação e OAE", "localizacao": "Interseção em desnível (Viaduto da Av. Leste-Oeste com a Av. Castelo Branco, Setor Esplanada do Anicuns", "status": "Aprovado", "validade": "28/12/2026", "pdf_licenca_instalacao": null, "pdf_licenca_previa": "pdfs/licenca_previa/Licenca_Previa_133_2022.pdf", "pdf_parecer_licenca": null, "pdf_autorizacao_extirpacao": "pdfs/autorizacao_extirpacao/Autorizacao_070_2023.pdf", "pdf_portaria_outorga": null, "pdf_autorizacao_anac": null }, "geometry": { "type": "Point", "coordinates": [ -49.314732602543373, -16.669207041300734 ] } },
{ "type": "Feature", "properties": { "id": 62, "processo": "91063370", "tipo": "Licença de Instalação - LI", "empreendimento": "Centro Municipal de Educação Infantil - CMEI Jardim das Hortências", "finalidade": "Obras de implantação de um Centro Municipal de Educação Infantil - CMEI", "localizacao": "Rua JH-15 com Rua JH-4, APM 10, Jardim das Hortências, Goiânia-GO", "status": "Aprovado", "validade": "11/07/2026", "pdf_licenca_instalacao": "pdfs/licenca_instalacao/Licenca_Instalacao_390_2022.pdf", "pdf_licenca_previa": "pdfs/licenca_previa/Licenca_Previa_059_2022.pdf", "pdf_parecer_licenca": "pdfs/parecer_licenca/Parecer_680_2022.pdf", "pdf_autorizacao_extirpacao": null, "pdf_portaria_outorga": null, "pdf_autorizacao_anac": null }, "geometry": { "type": "Point", "coordinates": [ -49.332196718658153, -16.625074328679769 ] } },
{ "type": "Feature", "properties": { "id": 63, "processo": "91063507", "tipo": "Licença de Instalação - LI", "empreendimento": "Centro Municipal de Educação Infantil - CMEI São Domingos", "finalidade": "Obras de implantação de um Centro Municipal de Educação Infantil - CMEI", "localizacao": "Rua BS-19 com Rua BS-08, APM 05.2, Bairro São Domingos, Goiânia-GO", "status": "Aprovado", "validade": "10/07/2026", "pdf_licenca_instalacao": "pdfs/licenca_instalacao/Licenca_Instalacao_388_2022.pdf", "pdf_licenca_previa": "pdfs/licenca_previa/Licenca_Previa_057_2022.pdf", "pdf_parecer_licenca": "pdfs/parecer_licenca/Parecer_693_2022.pdf", "pdf_autorizacao_extirpacao": null, "pdf_portaria_outorga": null, "pdf_autorizacao_anac": null }, "geometry": { "type": "Point", "coordinates": [ -49.336202228081262, -16.580699213728693 ] } },
{ "type": "Feature", "properties": { "id": 64, "processo": "91063094", "tipo": "Licença de Instalação - LI", "empreendimento": "Centro Municipal de Educação Infantil - CMEI Alto do Vale II", "finalidade": "Obras de implantação de um Centro Municipal de Educação Infantil - CMEI", "localizacao": "Rua ALV-4 com Rua RB-4, APM-8, Setor Alto do Vale II, Goiânia-GO", "status": "Aprovado", "validade": "22/08/2026", "pdf_licenca_instalacao": "pdfs/licenca_instalacao/Licenca_Instalacao_496_2022.pdf", "pdf_licenca_previa": "pdfs/licenca_previa/Licenca_Previa_090_2022.pdf", "pdf_parecer_licenca": "pdfs/parecer_licenca/Parecer_851_2022.pdf", "pdf_autorizacao_extirpacao": null, "pdf_portaria_outorga": null, "pdf_autorizacao_anac": null }, "geometry": { "type": "Point", "coordinates": [ -49.310563166577978, -16.612651422378214 ] } },
{ "type": "Feature", "properties": { "id": 65, "processo": "83704608", "tipo": "Licença de Instalação - LI", "empreendimento": "Centro Municipal de Educação Infantil - CMEI Alto do Vale", "finalidade": "Obras de implantação de um Centro Municipal de Educação Infantil - CMEI", "localizacao": "Rua ALV-14 esquina com Rua VF-9, APM-02, Setor Alto do Vale, Goiânia-GO", "status": "Aprovado", "validade": "11/06/2025", "pdf_licenca_instalacao": "pdfs/licenca_instalacao/Licenca_Instalacao_205_2021.pdf", "pdf_licenca_previa": null, "pdf_parecer_licenca": null, "pdf_autorizacao_extirpacao": null, "pdf_portaria_outorga": null, "pdf_autorizacao_anac": null }, "geometry": { "type": "Point", "coordinates": [ -49.313143227807828, -16.614939373705393 ] } },
{ "type": "Feature", "properties": { "id": 66, "processo": "79664375", "tipo": "Licença de Instalação - LI", "empreendimento": "Centro Municipal de Educação Infantil - CMEI Aristoclides Teixeira", "finalidade": "Obras de implantação de um Centro Municipal de Educação Infantil - CMEI", "localizacao": "Rua do Paraíso com Rua Dr. Vasco dos Reis, Lotes 03 e 04, Vila Jardim Pompéia, Goiânia-GO", "status": "Aprovado", "validade": "05/04/2028", "pdf_licenca_instalacao": "pdfs/licenca_instalacao/Licenca_Instalacao_181_2024.pdf", "pdf_licenca_previa": null, "pdf_parecer_licenca": "pdfs/parecer_licenca/Parecer_272_2024.pdf", "pdf_autorizacao_extirpacao": "pdfs/autorizacao_extirpacao/Autorizacao_088_2025.pdf", "pdf_portaria_outorga": null, "pdf_autorizacao_anac": null }, "geometry": { "type": "Point", "coordinates": [ -49.241194918125125, -16.610449954921148 ] } },
{ "type": "Feature", "properties": { "id": 67, "processo": "26.18.000002754-1 / 79662054", "tipo": "Renovação da Licença de Instalação - LI", "empreendimento": "Centro Municipal de Educação Infantil - CMEI Bairro Floresta", "finalidade": "Implantação de um Centro Municipal de Educação Infantil - CMEI", "localizacao": "Avenida do Bosque, APM,Bairro Floresta, Goiânia-GO", "status": "Pendente de documentação", "validade": "14/10/2026", "pdf_licenca_instalacao": "pdfs/licenca_instalacao/Licenca_Instalacao_590_2022.pdf", "pdf_licenca_previa": null, "pdf_parecer_licenca": "pdfs/parecer_licenca/Parecer_997_2022.pdf", "pdf_autorizacao_extirpacao": null, "pdf_portaria_outorga": null, "pdf_autorizacao_anac": null }, "geometry": { "type": "Point", "coordinates": [ -49.339679133799628, -16.594248928343639 ] } },
{ "type": "Feature", "properties": { "id": 68, "processo": "91303443", "tipo": "Licença de Instalação - LI", "empreendimento": "Centro Municipal de Educação Infantil - CMEI Campinas", "finalidade": "Obras de construção do Centro Municipal de Educação Infantil - CMEI", "localizacao": "Rua Ipameri com Avenida Perimetral, Quadra 20, Lote 10, Setor Campinas, Goiânia-GO", "status": "Aprovado", "validade": "07/03/2027", "pdf_licenca_instalacao": "pdfs/licenca_instalacao/Licenca_Instalacao_200_2023.pdf", "pdf_licenca_previa": "pdfs/licenca_previa/Licenca_Previa_048_2023.pdf", "pdf_parecer_licenca": "pdfs/parecer_licenca/Parecer_303_2023.pdf", "pdf_autorizacao_extirpacao": null, "pdf_portaria_outorga": null, "pdf_autorizacao_anac": null }, "geometry": { "type": "Point", "coordinates": [ -49.287398445563682, -16.667864249402552 ] } },
{ "type": "Feature", "properties": { "id": 69, "processo": "91063213", "tipo": "Licença de Instalação - LI", "empreendimento": "Centro Municipal de Educação Infantil - CMEI Carolina Parque", "finalidade": "Obras de implantação do Centro Municipal de Educação Infantil - CMEI", "localizacao": "Rua CP-17 c/Rua CP-19, APM-8, Setor Carolina Parque, Goiânia-GO", "status": "Aprovado", "validade": "22/08/2026", "pdf_licenca_instalacao": "pdfs/licenca_instalacao/Licenca_Instalacao_495_2022.pdf", "pdf_licenca_previa": "pdfs/licenca_previa/Licenca_Previa_089_2022.pdf", "pdf_parecer_licenca": "pdfs/parecer_licenca/Parecer_848_2022.pdf", "pdf_autorizacao_extirpacao": null, "pdf_portaria_outorga": null, "pdf_autorizacao_anac": null }, "geometry": { "type": "Point", "coordinates": [ -49.374799801535318, -16.693684030145661 ] } },
{ "type": "Feature", "properties": { "id": 70, "processo": "79663212", "tipo": "Licença de Instalação", "empreendimento": "Centro Municipal de Educação Infantil - CMEI Center Ville", "finalidade": "Obras de implantação de Centro Municipal de Educação Infantil - CMEI", "localizacao": "Rua CV-15 com Rua CV-26, APM-07, Residencial Center Ville, Bairro Santa Genoveva, Goiânia-GO", "status": "Aprovado", "validade": "06/10/2026", "pdf_licenca_instalacao": "pdfs/licenca_instalacao/Licenca_Instalacao_569_2022.pdf", "pdf_licenca_previa": null, "pdf_parecer_licenca": "pdfs/parecer_licenca/Parecer_943_2022.pdf", "pdf_autorizacao_extirpacao": null, "pdf_portaria_outorga": null, "pdf_autorizacao_anac": null }, "geometry": { "type": "Point", "coordinates": [ -49.350269026002238, -16.743043790791791 ] } },
{ "type": "Feature", "properties": { "id": 71, "processo": "83703245", "tipo": "Licença de Instalação", "empreendimento": "Centro Municipal de Educação Infantil - CMEI Conjunto Primavera", "finalidade": "Obras de implantação de um Centro Municipal de Educação Infantil - CMEI", "localizacao": "Rua Primavera com Ruas CP-51 e CP-46, APM-5, Conjunto Primavera, Goiânia-GO", "status": "Aprovado", "validade": "23/06/2025", "pdf_licenca_instalacao": "pdfs/licenca_instalacao/Licenca_Instalacao_206_2021.pdf", "pdf_licenca_previa": null, "pdf_parecer_licenca": "pdfs/parecer_licenca/Parecer_659_2021.pdf", "pdf_autorizacao_extirpacao": null, "pdf_portaria_outorga": null, "pdf_autorizacao_anac": null }, "geometry": { "type": "Point", "coordinates": [ -49.3768203743493, -16.584792006658727 ] } },
{ "type": "Feature", "properties": { "id": 72, "processo": "83705060", "tipo": "Licença de Instalação", "empreendimento": "Centro Municipal de Educação Infantil - CMEI Goyaz Park", "finalidade": "Obras de implantação de um Centro Municipal de Educação Infantil - CMEI", "localizacao": "Rua GP-03 com Rua GP-08, APM 2, Residencial Goyaz Park, Goiânia-GO", "status": "Aprovado", "validade": "14/06/2025", "pdf_licenca_instalacao": "pdfs/licenca_instalacao/Licenca_Instalacao_210_2021.pdf", "pdf_licenca_previa": null, "pdf_parecer_licenca": "pdfs/parecer_licenca/Parecer_660_2021.pdf", "pdf_autorizacao_extirpacao": null, "pdf_portaria_outorga": null, "pdf_autorizacao_anac": null }, "geometry": { "type": "Point", "coordinates": [ -49.378580802868008, -16.705457720756037 ] } },
{ "type": "Feature", "properties": { "id": 73, "processo": "79663727", "tipo": "Licença de Instalação - LI", "empreendimento": "Centro Municipal de Educação Infantil - CMEI Jardim Cerrado VII", "finalidade": "Implantação de um Centro Municipal de Educação Infantil - CMEI", "localizacao": "Rua JC-307 com a Rua JC-311, parte da APM-07, Residencial Jardim do Cerrado VII, Goiânia-GO", "status": "Aprovado", "validade": "17/10/2026", "pdf_licenca_instalacao": "pdfs/licenca_instalacao/Licenca_Instalacao_616_2022.pdf", "pdf_licenca_previa": null, "pdf_parecer_licenca": "pdfs/parecer_licenca/Parecer_1208_2022.pdf", "pdf_autorizacao_extirpacao": null, "pdf_portaria_outorga": null, "pdf_autorizacao_anac": null }, "geometry": { "type": "Point", "coordinates": [ -49.439686203293903, -16.677208975226854 ] } },
{ "type": "Feature", "properties": { "id": 74, "processo": "85441892", "tipo": "Licença de Instalação - LI", "empreendimento": "Centro Municipal de Educação Infantil - CMEI Jardim Colorado I", "finalidade": "Obras de construção de um Centro Municipal de Educação Infantil - CMEI", "localizacao": "Rua SC-13 com Rua SC-15, APM-12, Jardim Colorado, Goiânia-GO", "status": "Aprovado", "validade": "02/03/2027", "pdf_licenca_instalacao": "pdfs/licenca_instalacao/Licenca_Instalacao_190_2023.pdf", "pdf_licenca_previa": "pdfs/licenca_previa/Licenca_Previa_047_2023.pdf", "pdf_parecer_licenca": "pdfs/parecer_licenca/Parecer_246_2023.pdf", "pdf_autorizacao_extirpacao": null, "pdf_portaria_outorga": null, "pdf_autorizacao_anac": null }, "geometry": { "type": "Point", "coordinates": [ -49.332745516212697, -16.629183249358633 ] } },
{ "type": "Feature", "properties": { "id": 75, "processo": "91063426", "tipo": "Licença de Instalação", "empreendimento": "Centro Municipal de Educação Infantil - CMEI Jardim das Rosas", "finalidade": "Obras de implantação de um Centro Municipal de Educação Infantil - CMEI", "localizacao": "Avenida Waldemar Rosa D'Oliveira com Rua Vó Leopoldina, APM-05, Jardim das Rosas, Goiânia-GO", "status": "Aprovado", "validade": "22/08/2026", "pdf_licenca_instalacao": "pdfs/licenca_instalacao/Licenca_Instalacao_505_2022.pdf", "pdf_licenca_previa": "pdfs/licenca_previa/Licenca_Previa_091_2022.pdf", "pdf_parecer_licenca": "pdfs/parecer_licenca/Parecer_879_2022.pdf", "pdf_autorizacao_extirpacao": null, "pdf_portaria_outorga": null, "pdf_autorizacao_anac": null }, "geometry": { "type": "Point", "coordinates": [ -49.368553962701633, -16.703204983386996 ] } },
{ "type": "Feature", "properties": { "id": 76, "processo": "83704560", "tipo": "Licença de Instalação - LI", "empreendimento": "Centro Municipal de Educação Infantil - CMEI Jardim Guanabara II", "finalidade": "Obras de implantação de um Centro Municipal de Educação Infantil - CMEI", "localizacao": "Rua GB-09B com Rua GB-2E e GB-08, Jardim Guanabara II, Goiânia-GO", "status": "Aprovado", "validade": "14/06/2025", "pdf_licenca_instalacao": "pdfs/licenca_instalacao/Licenca_Instalacao_211_2021.pdf", "pdf_licenca_previa": null, "pdf_parecer_licenca": "pdfs/parecer_licenca/Parecer_702_2021.pdf", "pdf_autorizacao_extirpacao": null, "pdf_portaria_outorga": null, "pdf_autorizacao_anac": null }, "geometry": { "type": "Point", "coordinates": [ -49.21219655037946, -16.612673049906441 ] } },
{ "type": "Feature", "properties": { "id": 77, "processo": "26.18.000002727-4 / 79664014", "tipo": "Renovação da Licença de Instalação - LI", "empreendimento": "Centro Municipal de Educação Infantil - CMEI Jardim Mariliza", "finalidade": "Obras de implantação de um Centro Municipal de Educação Infantil - CMEI", "localizacao": "Rua Jarina com Rua Manguba, parte da APM, Jardim Mariliza, Goiânia-GO", "status": "Pendente de documentação", "validade": "27/07/2025", "pdf_licenca_instalacao": "pdfs/licenca_instalacao/Licenca_Instalacao_273_2021.pdf", "pdf_licenca_previa": "pdfs/licenca_previa/Licenca_Previa_045_2021.pdf", "pdf_parecer_licenca": "pdfs/parecer_licenca/Parecer_723_2021.pdf", "pdf_autorizacao_extirpacao": null, "pdf_portaria_outorga": null, "pdf_autorizacao_anac": null }, "geometry": { "type": "Point", "coordinates": [ -49.20024416727874, -16.736485902817471 ] } },
{ "type": "Feature", "properties": { "id": 78, "processo": "26.18.000002446-1 / 79663891", "tipo": "Renovação da Licença de Instalação - LI", "empreendimento": "Centro Municipal de Educação Infantil - CMEI Parque Atheneu II", "finalidade": "Obra de implantação e reforma do Centro Municipal de Educação Infantil - CMEI", "localizacao": "Rua 1032 com Avenida Parque Atheneu, parte da APM-35C35, Parque Ateneu, Goiânia-GO", "status": "Em análise - SEFIC", "validade": "10/10/2026", "pdf_licenca_instalacao": "pdfs/licenca_instalacao/Licenca_Instalacao_577_2022.pdf", "pdf_licenca_previa": null, "pdf_parecer_licenca": "pdfs/parecer_licenca/Parecer_1039_2021.pdf", "pdf_autorizacao_extirpacao": null, "pdf_portaria_outorga": null, "pdf_autorizacao_anac": null }, "geometry": { "type": "Point", "coordinates": [ -49.199300995724208, -16.739106810020335 ] } },
{ "type": "Feature", "properties": { "id": 79, "processo": "91063442", "tipo": "Licença de Instalação - LI", "empreendimento": "Centro Municipal de Educação Infantil - CMEI Parque Eldorado Oeste", "finalidade": "Obras de implantação de um Centro Municipal de Educação Infantil - CMEI", "localizacao": "Rua Elo 26 com Rua Elo 38, APM-25, Parque Eldorado Oeste, Goiânia-GO", "status": "Aprovado", "validade": "02/08/2026", "pdf_licenca_instalacao": "pdfs/licenca_instalacao/Licenca_Instalacao_428_2022.pdf", "pdf_licenca_previa": "pdfs/licenca_previa/Licenca_Previa_063_2022.pdf", "pdf_parecer_licenca": "pdfs/parecer_licenca/Parecer_850_2022.pdf", "pdf_autorizacao_extirpacao": null, "pdf_portaria_outorga": null, "pdf_autorizacao_anac": null }, "geometry": { "type": "Point", "coordinates": [ -49.408231313161956, -16.692819292911427 ] } },
{ "type": "Feature", "properties": { "id": 80, "processo": "91062977", "tipo": "Licença de Instalação - LI", "empreendimento": "Centro Municipal de Educação Infantil - CMEI Residencial Alice BArbosa", "finalidade": "Obras de implantação do Centro Municipal de Educação Infantil - CMEI", "localizacao": "Rua AB-03 esquina com Rua AB-22, APM-5, Residencial Alice Barbosa, Goiânia-GO", "status": "Aprovado", "validade": "23/08/2026", "pdf_licenca_instalacao": "pdfs/licenca_instalacao/Licenca_Instalacao_494_2022.pdf", "pdf_licenca_previa": null, "pdf_parecer_licenca": "pdfs/parecer_licenca/Parecer_849_2022.pdf", "pdf_autorizacao_extirpacao": null, "pdf_portaria_outorga": null, "pdf_autorizacao_anac": null }, "geometry": { "type": "Point", "coordinates": [ -49.267157081218897, -16.595923507514073 ] } },
{ "type": "Feature", "properties": { "id": 81, "processo": "26.18.000002449-6 / 89586381", "tipo": "Renovação da Licença de Instalação - LI", "empreendimento": "Centro Municipal de Educação Infantil - CMEI Residencial Barra Vento", "finalidade": "Implantação de um Centro Municipal de Educação Infantil - CMEI", "localizacao": "Rua Guilherme F. Coelho com a Rua Percival Xavier Rebelo e Rua Everaldo de Souza, APM-02, Residencial Barravento, Goiânia-GO", "status": "Em análise - SEFIC", "validade": "17/10/2026", "pdf_licenca_instalacao": "pdfs/licenca_instalacao/Licenca_Instalacao_617_2022.pdf", "pdf_licenca_previa": "pdfs/licenca_previa/Licenca_Previa_108_2022.pdf", "pdf_parecer_licenca": null, "pdf_autorizacao_extirpacao": null, "pdf_portaria_outorga": null, "pdf_autorizacao_anac": null }, "geometry": { "type": "Point", "coordinates": [ -49.308423806414687, -16.619609669324209 ] } },
{ "type": "Feature", "properties": { "id": 82, "processo": "91063469", "tipo": "Licença de Instalação", "empreendimento": "Centro Municipal de Educação Infantil - CMEI Residencial Flamingo", "finalidade": "Obras de Implantação de um Centro Municipal de Educação Infantil - CMEI", "localizacao": "Rua Presidente Ernesto Geisel com Rua RF-1 e Rua RF-2, APM 3, Residencial Flamingo, Goiânia-GO", "status": "Aprovado", "validade": "11/07/2026", "pdf_licenca_instalacao": "pdfs/licenca_instalacao/Licenca_Instalacao_389_2022.pdf", "pdf_licenca_previa": "pdfs/licenca_previa/Licenca_Previa_058_2022.pdf", "pdf_parecer_licenca": "pdfs/parecer_licenca/Parecer_692_2022.pdf", "pdf_autorizacao_extirpacao": null, "pdf_portaria_outorga": null, "pdf_autorizacao_anac": null }, "geometry": { "type": "Point", "coordinates": [ -49.330767706844561, -16.738989643497728 ] } },
{ "type": "Feature", "properties": { "id": 83, "processo": "91063337", "tipo": "Licença de Instalação - LI", "empreendimento": "Centro Municipal de Educação Infantil - CMEI Residencial Itaipú", "finalidade": "Implantação de um Centro Municipal de Educação Infantil - CMEI", "localizacao": "Rua RI-24, com a Rua RI-04, com a Rua RI-02, Qudara 36, APM-06, Residencial Itaipu, Goiânia-GO", "status": "Aprovado", "validade": "17/10/2026", "pdf_licenca_instalacao": "pdfs/licenca_instalacao/Licenca_Instalacao_614_2022.pdf", "pdf_licenca_previa": "pdfs/licenca_previa/Licenca_Previa_107_2022.pdf", "pdf_parecer_licenca": "pdfs/parecer_licenca/Parecer_1168_2022.pdf", "pdf_autorizacao_extirpacao": null, "pdf_portaria_outorga": null, "pdf_autorizacao_anac": null }, "geometry": { "type": "Point", "coordinates": [ -49.364656549766558, -16.790054898088194 ] } },
{ "type": "Feature", "properties": { "id": 84, "processo": "83703369", "tipo": "Licença Prévia - LP", "empreendimento": "Centro Municipal de Educação Infantil - CMEI Residencial Kátia", "finalidade": "Obras de implantação de um Centro Municipal de Educação Infantil - CMEI", "localizacao": "Rua Gerson de Castro Costa com Avenida Orlando Marques de Abreu, APM-03, Setor Residencial Kátia, Goiânia-GO", "status": "Aprovado", "validade": "16/07/2024", "pdf_licenca_instalacao": null, "pdf_licenca_previa": "pdfs/licenca_previa/Licenca_Previa_082_2020.pdf", "pdf_parecer_licenca": null, "pdf_autorizacao_extirpacao": null, "pdf_portaria_outorga": null, "pdf_autorizacao_anac": null }, "geometry": { "type": "Point", "coordinates": [ -49.360921875500182, -16.736191276012168 ] } },
{ "type": "Feature", "properties": { "id": 85, "processo": "26.18.000002753-3", "tipo": "Renovação da Licença de Instalação - LI", "empreendimento": "Centro Municipal de Educação Infantil - CMEI Residencial Mendanha", "finalidade": "Obras de implantação do Centro Municipal de Educação Infantil - CMEI", "localizacao": "Rua Mendanha com Rua RM-05, APM-03, Residencial Mendanha, Goiânia-GO", "status": "Pendente de documentação", "validade": "17/05/2025", "pdf_licenca_instalacao": "pdfs/licenca_instalacao/Licenca_Instalacao_155_2021.pdf", "pdf_licenca_previa": null, "pdf_parecer_licenca": "pdfs/parecer_licenca/Parecer_271_2021.pdf", "pdf_autorizacao_extirpacao": null, "pdf_portaria_outorga": null, "pdf_autorizacao_anac": null }, "geometry": { "type": "Point", "coordinates": [ -49.371819426937883, -16.683421850040219 ] } },
{ "type": "Feature", "properties": { "id": 86, "processo": "83703431", "tipo": "Licença Prévia - LP", "empreendimento": "Centro Municipal de Educação Infantil - CMEI Residencial Orlando de Morais", "finalidade": "Obras de implantação de um Centro Municipal de Educação Infantil - CMEI", "localizacao": "Rua OM-08 com Rua OM-04, Rua OM-07 e Rua OM-10, APM-01, Setor Residencial Orlando de Morais, Goiânia-GO", "status": "Aprovado", "validade": "16/07/2024", "pdf_licenca_instalacao": null, "pdf_licenca_previa": "pdfs/licenca_previa/Licenca_Previa_083_2020.pdf", "pdf_parecer_licenca": null, "pdf_autorizacao_extirpacao": null, "pdf_portaria_outorga": null, "pdf_autorizacao_anac": null }, "geometry": { "type": "Point", "coordinates": [ -49.270391660744217, -16.560729234602817 ] } },
{ "type": "Feature", "properties": { "id": 87, "processo": "83705132", "tipo": "Licença de Instalação - LI", "empreendimento": "Centro Municipal de Educação Infantil - CMEI Santa Fé", "finalidade": "Obras de implantação de um Centro Municipal de Educação Infantil - CMEI", "localizacao": "Rua da Glória com a Rua das Flores e Rua das Laranjeiras, APM-09, Setor Residencial Santa Fé, Goiânia-GO", "status": "Aprovado", "validade": "14/06/2025", "pdf_licenca_instalacao": "pdfs/licenca_instalacao/Licenca_Instalacao_209_2021.pdf", "pdf_licenca_previa": null, "pdf_parecer_licenca": "pdfs/parecer_licenca/Parecer_657_2021.pdf", "pdf_autorizacao_extirpacao": null, "pdf_portaria_outorga": null, "pdf_autorizacao_anac": null }, "geometry": { "type": "Point", "coordinates": [ -49.381312911905219, -16.751570413777838 ] } },
{ "type": "Feature", "properties": { "id": 88, "processo": "79661112", "tipo": "Licença de Instalação - LI", "empreendimento": "Centro Municipal de Educação Infantil - CMEI São José", "finalidade": "Obras de implantação de um Centro Municipal de Educação Infantil - CMEI", "localizacao": "Rua Benedito Pereira Castro com Rua Dr. Walter Costa e Rua Irmã MAria Bernarda, APM-15, Setor Jardim São José, Goiânia-GO", "status": "Aprovado", "validade": "13/07/2025", "pdf_licenca_instalacao": "pdfs/licenca_instalacao/Licenca_Instalacao_250_2021.pdf", "pdf_licenca_previa": null, "pdf_parecer_licenca": "pdfs/parecer_licenca/Parecer_819_2021.pdf", "pdf_autorizacao_extirpacao": null, "pdf_portaria_outorga": null, "pdf_autorizacao_anac": null }, "geometry": { "type": "Point", "coordinates": [ -49.387192885702532, -16.69424269383029 ] } },
{ "type": "Feature", "properties": { "id": 89, "processo": "91063299", "tipo": "Licença de Instalação - LI", "empreendimento": "Centro Municipal de Educação Infantil - CMEI Setor Grajaú", "finalidade": "Construção de um Centro Municipal de Educação Infantil - CMEI", "localizacao": "Rua G-7 com Rua G-17, APM-04, Setor Grajaú, Goiânia-GO", "status": "Aprovado", "validade": "03/08/2026", "pdf_licenca_instalacao": "pdfs/licenca_instalacao/Licenca_Instalacao_434_2022.pdf", "pdf_licenca_previa": "pdfs/licenca_previa/Licenca_Previa_064_2022.pdf", "pdf_parecer_licenca": "pdfs/parecer_licenca/Parecer_733_2022.pdf", "pdf_autorizacao_extirpacao": null, "pdf_portaria_outorga": null, "pdf_autorizacao_anac": null }, "geometry": { "type": "Point", "coordinates": [ -49.366844612743286, -16.760528871404546 ] } },
{ "type": "Feature", "properties": { "id": 90, "processo": "91063523", "tipo": "Licença de Instalação - LI", "empreendimento": "Centro Municipal de Educação Infantil - CMEI Tempo Novo", "finalidade": "Obras de implantação de um Centro Municipal de Educação Infantil - CMEI", "localizacao": "Rua TN-03 com Rua TN-01, APM-03, Setor Tempo Novo, Goiânia-GO", "status": "Aprovado", "validade": "03/08/2026", "pdf_licenca_instalacao": "pdfs/licenca_instalacao/Licenca_Instalacao_436_2022.pdf", "pdf_licenca_previa": "pdfs/licenca_previa/Licenca_Previa_066_2022.pdf", "pdf_parecer_licenca": "pdfs/parecer_licenca/Parecer_736_2022.pdf", "pdf_autorizacao_extirpacao": null, "pdf_portaria_outorga": null, "pdf_autorizacao_anac": null }, "geometry": { "type": "Point", "coordinates": [ -49.385427705689793, -16.648959470871514 ] } },
{ "type": "Feature", "properties": { "id": 91, "processo": "91063574", "tipo": "Licença de Instalação - LI", "empreendimento": "Centro Municipal de Educação Infantil - CMEI Vera Cruz VI", "finalidade": "Obras de implantação de um Centro Municipal de Educação Infantil - CMEI", "localizacao": "Rua VC-46 com Rua Manoel Bandeira, Bairro Conjunto Vera Cruz VI, Goiânia-GO", "status": "Aprovado", "validade": "04/08/2026", "pdf_licenca_instalacao": "pdfs/licenca_instalacao/Licenca_Instalacao_445_2022.pdf", "pdf_licenca_previa": null, "pdf_parecer_licenca": "pdfs/parecer_licenca/Parecer_734_2022.pdf", "pdf_autorizacao_extirpacao": null, "pdf_portaria_outorga": null, "pdf_autorizacao_anac": null }, "geometry": { "type": "Point", "coordinates": [ -49.38230716201992, -16.675783171633284 ] } },
{ "type": "Feature", "properties": { "id": 92, "processo": "79661554", "tipo": "Licença de Instalação - LI", "empreendimento": "Centro Municipal de Educação Infantil - CMEI Vila Santa Helena", "finalidade": "Obras de implantação de um Centro Municipal de Educação Infantil - CMEI", "localizacao": "Rua 15 com Rua da Divisa e Rua J, Vila Santa Helena, Goiânia-GO", "status": "Aprovado", "validade": "26/04/2025", "pdf_licenca_instalacao": "pdfs/licenca_instalacao/Licenca_Instalacao_129_2021.pdf", "pdf_licenca_previa": "pdfs/licenca_previa/Licenca_Previa_022_2021.pdf", "pdf_parecer_licenca": "pdfs/parecer_licenca/Parecer_478_2021.pdf", "pdf_autorizacao_extirpacao": null, "pdf_portaria_outorga": null, "pdf_autorizacao_anac": null }, "geometry": { "type": "Point", "coordinates": [ -49.280944728868469, -16.657085158201507 ] } },
{ "type": "Feature", "properties": { "id": 93, "processo": "82100020", "tipo": "Licença Prévia - LP", "empreendimento": "Escola Municipal - EM Santa Terezinha", "finalidade": "Obras de reforma e ampliação", "localizacao": "Rodovia GO-080 km 08, Quadra Chácara, Lotes 82, Chácara Bom Retiro, Goiânia-GO", "status": "Aprovado", "validade": "04/02/2024", "pdf_licenca_instalacao": null, "pdf_licenca_previa": "pdfs/licenca_previa/Licenca_Previa_012_2020.pdf", "pdf_parecer_licenca": "pdfs/parecer_licenca/Parecer_130_2020.pdf", "pdf_autorizacao_extirpacao": null, "pdf_portaria_outorga": null, "pdf_autorizacao_anac": null }, "geometry": { "type": "Point", "coordinates": [ -49.240663938673066, -16.557921430693998 ] } },
{ "type": "Feature", "properties": { "id": 94, "processo": "26.18.000002571-9 / 90849361", "tipo": "Renovação da Licença de Instalação - LI", "empreendimento": "Escola Municipal - EM Jaime Camara", "finalidade": "Obras de implantação de quadra poliesportiva", "localizacao": "Avenida Viena com Rua Granada, Quadra 165, Bairro Jardim Europa, Goiânia-GO", "status": "Em análise - SEFIC", "validade": "01/07/2026", "pdf_licenca_instalacao": "pdfs/licenca_instalacao/Licenca_Instalacao_351_2022.pdf", "pdf_licenca_previa": "pdfs/licenca_previa/Licenca_Previa_052_2022.pdf", "pdf_parecer_licenca": "pdfs/parecer_licenca/Parecer_581_2022.pdf", "pdf_autorizacao_extirpacao": null, "pdf_portaria_outorga": null, "pdf_autorizacao_anac": null }, "geometry": { "type": "Point", "coordinates": [ -49.308239686023022, -16.72766396461849 ] } },
{ "type": "Feature", "properties": { "id": 95, "processo": "90848870", "tipo": "Licença de Instalação - LI", "empreendimento": "Escola Municipal - EM Jalles Machado", "finalidade": "Obras de implantação de quadra poliesportiva coberta", "localizacao": "Rua Aruanã, Quadra K-01, n° 61, Jardim Bela Vista, Goiânia-GO", "status": "Aprovado", "validade": "08/06/2026", "pdf_licenca_instalacao": "pdfs/licenca_instalacao/Licenca_Instalacao_290_2022.pdf", "pdf_licenca_previa": "pdfs/licenca_previa/Licenca_Previa_037_2022.pdf", "pdf_parecer_licenca": "pdfs/parecer_licenca/Parecer_517_2022.pdf", "pdf_autorizacao_extirpacao": null, "pdf_portaria_outorga": null, "pdf_autorizacao_anac": null }, "geometry": { "type": "Point", "coordinates": [ -49.235099939225229, -16.733361015386045 ] } },
{ "type": "Feature", "properties": { "id": 96, "processo": "26.18.000002575-1 / 90849043", "tipo": "Renovação da Licença de Instalação - LI", "empreendimento": "Escola Municipal - EM Jardim Atlântico", "finalidade": "Obras de implantação de quadra poliesportiva e demais obras propostas conforme projeto de arquitetura", "localizacao": "Rua do Samburá com Rua Itapoã e Rua Saquarema, Jardim Atlântico, Goiânia-GO", "status": "Em análise - SEFIC", "validade": "08/06/2026", "pdf_licenca_instalacao": "pdfs/licenca_instalacao/Licenca_Instalacao_289_2022.pdf", "pdf_licenca_previa": "pdfs/licenca_previa/Licenca_Previa_036_2022.pdf", "pdf_parecer_licenca": "pdfs/parecer_licenca/Parecer_559_2022.pdf", "pdf_autorizacao_extirpacao": null, "pdf_portaria_outorga": null, "pdf_autorizacao_anac": null }, "geometry": { "type": "Point", "coordinates": [ -49.289259843329333, -16.735433662135222 ] } },
{ "type": "Feature", "properties": { "id": 97, "processo": "90849159", "tipo": "Licença de Instalação - LI", "empreendimento": "Escola Municipal - EM Olegário Moreira", "finalidade": "Obras de implantação de quadra poliesportiva e demais propostas previstas em projeto de arquitetura", "localizacao": "Rua F-04 com Avenida Bufaiçal, Setor Faiçalville II, Goiânia-GO", "status": "Aprovado", "validade": "08/06/2026", "pdf_licenca_instalacao": "pdfs/licenca_instalacao/Licenca_Instalacao_287_2022.pdf", "pdf_licenca_previa": "pdfs/licenca_previa/Licenca_Previa_034_2022.pdf", "pdf_parecer_licenca": "pdfs/parecer_licenca/Parecer_561_2022.pdf", "pdf_autorizacao_extirpacao": null, "pdf_portaria_outorga": null, "pdf_autorizacao_anac": null }, "geometry": { "type": "Point", "coordinates": [ -49.323151061998303, -16.737799773565236 ] } },
{ "type": "Feature", "properties": { "id": 98, "processo": "26.18.000002576-0 / 90849213", "tipo": "Renovação da Licença de Instalação - LI", "empreendimento": "Escola Municipal - EM Sebastião Arantes", "finalidade": "Obras de implantação de quadra poliesportiva coberta", "localizacao": "Rua Caramuru, Quadra 21, Bairro Jardim da Luz, Goiânia-GO", "status": "Em análise - SEFIC", "validade": "20/06/2026", "pdf_licenca_instalacao": "pdfs/licenca_instalacao/Licenca_Instalacao_328_2022.pdf", "pdf_licenca_previa": "pdfs/licenca_previa/Licenca_Previa_044_2022.pdf", "pdf_parecer_licenca": "pdfs/parecer_licenca/Parecer_556_2022.pdf", "pdf_autorizacao_extirpacao": null, "pdf_portaria_outorga": null, "pdf_autorizacao_anac": null }, "geometry": { "type": "Point", "coordinates": [ -49.238918952509749, -16.725668591482343 ] } },
{ "type": "Feature", "properties": { "id": 99, "processo": "26.18.000002736-3 / 90848845", "tipo": "Renovação da Licença de Instalação - LI", "empreendimento": "Escola Municipal - EM Ary Valadão", "finalidade": "Obras de implantação de quadra poliesportiva", "localizacao": "Rua AP-3, n° 358, Quadra 10, Conjunto Aruanã III, Goiânia-GO", "status": "Pendente de documentação", "validade": "08/06/2026", "pdf_licenca_instalacao": "pdfs/licenca_instalacao/Licenca_Instalacao_288_2022.pdf", "pdf_licenca_previa": "pdfs/licenca_previa/Licenca_Previa_035_2022.pdf", "pdf_parecer_licenca": "pdfs/parecer_licenca/Parecer_555_2022.pdf", "pdf_autorizacao_extirpacao": null, "pdf_portaria_outorga": null, "pdf_autorizacao_anac": null }, "geometry": { "type": "Point", "coordinates": [ -49.200305936700467, -16.682252115409778 ] } },
{ "type": "Feature", "properties": { "id": 100, "processo": "90849604", "tipo": "Licença de Instalação - LI", "empreendimento": "Escola Municipal - EM Deputado Jamel Cecílio", "finalidade": "Obras de implantação de quadra poliesportiva coberta", "localizacao": "Avenida Pedro Ludovico Teixeira, n° 777, Lotes 16 e 17, Bairro Jardim Vila Boa, Goiânia-GO", "status": "Aprovado", "validade": "01/07/2026", "pdf_licenca_instalacao": "pdfs/licenca_instalacao/Licenca_Instalacao_357_2022.pdf", "pdf_licenca_previa": "pdfs/licenca_previa/Licenca_Previa_054_2022.pdf", "pdf_parecer_licenca": "pdfs/parecer_licenca/Parecer_582_2022.pdf", "pdf_autorizacao_extirpacao": null, "pdf_portaria_outorga": null, "pdf_autorizacao_anac": null }, "geometry": { "type": "Point", "coordinates": [ -49.32249891944992, -16.731027838864904 ] } },
{ "type": "Feature", "properties": { "id": 101, "processo": "26.18.000002572-7 / 90848772", "tipo": "Renovação da Licença de Instalação - LI", "empreendimento": "Escola Municipal - EM Engenheiro Robinho", "finalidade": "Obras de implantação de quadra poliesportiva", "localizacao": "Avenida BL-1, PM-01, Conjunto Baliza, Goiânia-GO", "status": "Em análise - SEFIC", "validade": "08/06/2026", "pdf_licenca_instalacao": "pdfs/licenca_instalacao/Licenca_Instalacao_286_2022.pdf", "pdf_licenca_previa": "pdfs/licenca_previa/Licenca_Previa_033_2022.pdf", "pdf_parecer_licenca": "pdfs/parecer_licenca/Parecer_560_2022.pdf", "pdf_autorizacao_extirpacao": null, "pdf_portaria_outorga": null, "pdf_autorizacao_anac": null }, "geometry": { "type": "Point", "coordinates": [ -49.358550880005218, -16.77363480344696 ] } },
{ "type": "Feature", "properties": { "id": 102, "processo": "91063612", "tipo": "Licença de Instalação - LI", "empreendimento": "Escola Municipal - EM Francisco Bibiano", "finalidade": "Obras de reforma", "localizacao": "Rua Dr. Benjamin Luiz Vieira, n° 725, Setor Criméia Oeste, Goiânia-GO", "status": "Aprovado", "validade": "11/07/2026", "pdf_licenca_instalacao": "pdfs/licenca_instalacao/Licenca_Instalacao_383_2022.pdf", "pdf_licenca_previa": "pdfs/licenca_previa/Licenca_Previa_056_2022.pdf", "pdf_parecer_licenca": "pdfs/parecer_licenca/Parecer_686_2022.pdf", "pdf_autorizacao_extirpacao": null, "pdf_portaria_outorga": null, "pdf_autorizacao_anac": null }, "geometry": { "type": "Point", "coordinates": [ -49.266561956598139, -16.651837642403663 ] } },
{ "type": "Feature", "properties": { "id": 103, "processo": "90848985", "tipo": "Licença de Instalação - LI", "empreendimento": "Escola Municipal - EM João Braz", "finalidade": "Obras de implantação de quadra poliesportiva coberta - padrão 04", "localizacao": "Rua São Salvador, Quadra 28, Setor São Judas Tadeu, Goiânia-GO", "status": "Aprovado", "validade": "20/06/2026", "pdf_licenca_instalacao": "pdfs/licenca_instalacao/Licenca_Instalacao_329_2022.pdf", "pdf_licenca_previa": "pdfs/licenca_previa/Licenca_Previa_045_2022.pdf", "pdf_parecer_licenca": "pdfs/parecer_licenca/Parecer_568_2022.pdf", "pdf_autorizacao_extirpacao": null, "pdf_portaria_outorga": null, "pdf_autorizacao_anac": null }, "geometry": { "type": "Point", "coordinates": [ -49.248658327290414, -16.618041154731564 ] } },
{ "type": "Feature", "properties": { "id": 104, "processo": "90849698", "tipo": "Licença de Instalação - LI", "empreendimento": "Escola Municipal - EM Vitor Hugo Ludwig", "finalidade": "Obras de implantação de quadra poliesportiva coberta", "localizacao": "Rua Formosa, Quadra 37, Bairro Cidade Jardim, Goiânia-GO", "status": "Aprovado", "validade": "01/07/2026", "pdf_licenca_instalacao": "pdfs/licenca_instalacao/Licenca_Instalacao_358_2022.pdf", "pdf_licenca_previa": "pdfs/licenca_previa/Licenca_Previa_055_2022.pdf", "pdf_parecer_licenca": "pdfs/parecer_licenca/Parecer_580_2022.pdf", "pdf_autorizacao_extirpacao": null, "pdf_portaria_outorga": null, "pdf_autorizacao_anac": null }, "geometry": { "type": "Point", "coordinates": [ -49.315913348796904, -16.675066283129429 ] } },
{ "type": "Feature", "properties": { "id": 106, "processo": "25.24.000013628-8", "tipo": "Licença Prévia - LP", "empreendimento": "Escola Municipal - EM Professora D'Alka Lélis", "finalidade": "Obras de implantação de quadra poliesportiva coberta", "localizacao": "Rua OM-19 c/ Rua OM-21 c/ Rua OM-26, Residencial Orlando de Morais, Área Pública APM-06, Goiânia-GO", "status": "Pendente de documentação", "validade": null, "pdf_licenca_instalacao": null, "pdf_licenca_previa": null, "pdf_parecer_licenca": null, "pdf_autorizacao_extirpacao": null, "pdf_portaria_outorga": null, "pdf_autorizacao_anac": null }, "geometry": { "type": "Point", "coordinates": [ -49.269036404714868, -16.549425277518054 ] } }
]
}
